{
  "type": "FeatureCollection",
  "features": [
    {
      "type": "Feature",
      "properties": {
        "norad_id": 29486,
        "name": "GPS BIIRM-2 (PRN 31)",
        "group": "gps-ops",
        "lat": 41.894965508726074,
        "lon": -60.63402631545955,
        "alt_km": 20092.45569984742,
        "timestamp": "2025-12-09T16:56:36.833525+00:00",
        "meta_object_name": "GPS BIIRM-2 (PRN 31)",
        "meta_object_id": "2006-042A",
        "meta_epoch": "2025-12-09T12:11:01.327200",
        "meta_mean_motion": 2.0055423,
        "meta_eccentricity": 0.0107362,
        "meta_inclination": 54.6937,
        "meta_ra_of_asc_node": 158.8689,
        "meta_arg_of_pericenter": 51.8849,
        "meta_mean_anomaly": 288.7745,
        "meta_ephemeris_type": 0,
        "meta_classification_type": "U",
        "meta_norad_cat_id": 29486,
        "meta_element_set_no": 999,
        "meta_rev_at_epoch": 14058,
        "meta_bstar": 0,
        "meta_mean_motion_dot": 6.7e-07,
        "meta_mean_motion_ddot": 0,
        "tle_line1": "1 29486U 06042A   25343.50765425  .00000067  00000+0  00000+0 0  9993",
        "tle_line2": "2 29486  54.6937 158.8689 0107362  51.8849 288.7745  2.00554230140584"
      },
      "geometry": {
        "type": "Point",
        "coordinates": [
          -60.63402631545955,
          41.894965508726074
        ]
      }
    },
    {
      "type": "Feature",
      "properties": {
        "norad_id": 29601,
        "name": "GPS BIIRM-3 (PRN 12)",
        "group": "gps-ops",
        "lat": -1.8687213092977315,
        "lon": 42.838130212007535,
        "alt_km": 20199.670541777563,
        "timestamp": "2025-12-09T16:56:36.833537+00:00",
        "meta_object_name": "GPS BIIRM-3 (PRN 12)",
        "meta_object_id": "2006-052A",
        "meta_epoch": "2025-12-08T22:59:17.672352",
        "meta_mean_motion": 2.00573222,
        "meta_eccentricity": 0.0087721,
        "meta_inclination": 54.9712,
        "meta_ra_of_asc_node": 221.5484,
        "meta_arg_of_pericenter": 87.3994,
        "meta_mean_anomaly": 273.6864,
        "meta_ephemeris_type": 0,
        "meta_classification_type": "U",
        "meta_norad_cat_id": 29601,
        "meta_element_set_no": 999,
        "meta_rev_at_epoch": 13959,
        "meta_bstar": 0,
        "meta_mean_motion_dot": 1e-07,
        "meta_mean_motion_ddot": 0,
        "tle_line1": "1 29601U 06052A   25342.95784343  .00000010  00000+0  00000+0 0  9999",
        "tle_line2": "2 29601  54.9712 221.5484 0087721  87.3994 273.6864  2.00573222139595"
      },
      "geometry": {
        "type": "Point",
        "coordinates": [
          42.838130212007535,
          -1.8687213092977315
        ]
      }
    },
    {
      "type": "Feature",
      "properties": {
        "norad_id": 32260,
        "name": "GPS BIIRM-4 (PRN 15)",
        "group": "gps-ops",
        "lat": -31.438655483704917,
        "lon": 61.481058860239386,
        "alt_km": 20433.204470775676,
        "timestamp": "2025-12-09T16:56:36.833549+00:00",
        "meta_object_name": "GPS BIIRM-4 (PRN 15)",
        "meta_object_id": "2007-047A",
        "meta_epoch": "2025-12-09T06:19:25.464288",
        "meta_mean_motion": 2.00564591,
        "meta_eccentricity": 0.016427,
        "meta_inclination": 53.953,
        "meta_ra_of_asc_node": 87.9021,
        "meta_arg_of_pericenter": 85.2089,
        "meta_mean_anomaly": 276.6577,
        "meta_ephemeris_type": 0,
        "meta_classification_type": "U",
        "meta_norad_cat_id": 32260,
        "meta_element_set_no": 999,
        "meta_rev_at_epoch": 13300,
        "meta_bstar": 0,
        "meta_mean_motion_dot": -1.5e-07,
        "meta_mean_motion_ddot": 0,
        "tle_line1": "1 32260U 07047A   25343.26348917 -.00000015  00000+0  00000+0 0  9993",
        "tle_line2": "2 32260  53.9530  87.9021 0164270  85.2089 276.6577  2.00564591133008"
      },
      "geometry": {
        "type": "Point",
        "coordinates": [
          61.481058860239386,
          -31.438655483704917
        ]
      }
    },
    {
      "type": "Feature",
      "properties": {
        "norad_id": 32384,
        "name": "GPS BIIRM-5 (PRN 29)",
        "group": "gps-ops",
        "lat": 55.20080249480005,
        "lon": 11.976450693635838,
        "alt_km": 20148.48835447439,
        "timestamp": "2025-12-09T16:56:36.833560+00:00",
        "meta_object_name": "GPS BIIRM-5 (PRN 29)",
        "meta_object_id": "2007-062A",
        "meta_epoch": "2025-12-09T04:27:19.804896",
        "meta_mean_motion": 2.00577042,
        "meta_eccentricity": 0.00322219,
        "meta_inclination": 55.1854,
        "meta_ra_of_asc_node": 281.7885,
        "meta_arg_of_pericenter": 162.5723,
        "meta_mean_anomaly": 272.1574,
        "meta_ephemeris_type": 0,
        "meta_classification_type": "U",
        "meta_norad_cat_id": 32384,
        "meta_element_set_no": 999,
        "meta_rev_at_epoch": 13170,
        "meta_bstar": 0,
        "meta_mean_motion_dot": -5.2e-07,
        "meta_mean_motion_ddot": 0,
        "tle_line1": "1 32384U 07062A   25343.18564589 -.00000052  00000+0  00000+0 0  9994",
        "tle_line2": "2 32384  55.1854 281.7885 0032221 162.5723 272.1574  2.00577042131702"
      },
      "geometry": {
        "type": "Point",
        "coordinates": [
          11.976450693635838,
          55.20080249480005
        ]
      }
    },
    {
      "type": "Feature",
      "properties": {
        "norad_id": 32711,
        "name": "GPS BIIRM-6 (PRN 07)",
        "group": "gps-ops",
        "lat": 13.510006042388467,
        "lon": 167.37325692070195,
        "alt_km": 20532.26191464613,
        "timestamp": "2025-12-09T16:56:36.833572+00:00",
        "meta_object_name": "GPS BIIRM-6 (PRN 07)",
        "meta_object_id": "2008-012A",
        "meta_epoch": "2025-12-09T04:24:39.828384",
        "meta_mean_motion": 2.00565429,
        "meta_eccentricity": 0.0202295,
        "meta_inclination": 54.4767,
        "meta_ra_of_asc_node": 157.5148,
        "meta_arg_of_pericenter": 244.9075,
        "meta_mean_anomaly": 112.9865,
        "meta_ephemeris_type": 0,
        "meta_classification_type": "U",
        "meta_norad_cat_id": 32711,
        "meta_element_set_no": 999,
        "meta_rev_at_epoch": 12994,
        "meta_bstar": 0,
        "meta_mean_motion_dot": 6.4e-07,
        "meta_mean_motion_ddot": 0,
        "tle_line1": "1 32711U 08012A   25343.18379431  .00000064  00000+0  00000+0 0  9996",
        "tle_line2": "2 32711  54.4767 157.5148 0202295 244.9075 112.9865  2.00565429129941"
      },
      "geometry": {
        "type": "Point",
        "coordinates": [
          167.37325692070195,
          13.510006042388467
        ]
      }
    },
    {
      "type": "Feature",
      "properties": {
        "norad_id": 35752,
        "name": "GPS BIIRM-8 (PRN 05)",
        "group": "gps-ops",
        "lat": 28.015581632861597,
        "lon": 55.874905172394584,
        "alt_km": 20084.85814368201,
        "timestamp": "2025-12-09T16:56:36.833583+00:00",
        "meta_object_name": "GPS BIIRM-8 (PRN 05)",
        "meta_object_id": "2009-043A",
        "meta_epoch": "2025-12-09T03:40:35.787936",
        "meta_mean_motion": 2.00565819,
        "meta_eccentricity": 0.0051902,
        "meta_inclination": 56.0885,
        "meta_ra_of_asc_node": 34.9246,
        "meta_arg_of_pericenter": 81.9687,
        "meta_mean_anomaly": 273.8421,
        "meta_ephemeris_type": 0,
        "meta_classification_type": "U",
        "meta_norad_cat_id": 35752,
        "meta_element_set_no": 999,
        "meta_rev_at_epoch": 11954,
        "meta_bstar": 0,
        "meta_mean_motion_dot": -8.5e-07,
        "meta_mean_motion_ddot": 0,
        "tle_line1": "1 35752U 09043A   25343.15319199 -.00000085  00000+0  00000+0 0  9995",
        "tle_line2": "2 35752  56.0885  34.9246 0051902  81.9687 273.8421  2.00565819119543"
      },
      "geometry": {
        "type": "Point",
        "coordinates": [
          55.874905172394584,
          28.015581632861597
        ]
      }
    },
    {
      "type": "Feature",
      "properties": {
        "norad_id": 36585,
        "name": "GPS BIIF-1  (PRN 25)",
        "group": "gps-ops",
        "lat": 20.171349939026808,
        "lon": 20.89853956304954,
        "alt_km": 20175.593246412944,
        "timestamp": "2025-12-09T16:56:36.833595+00:00",
        "meta_object_name": "GPS BIIF-1  (PRN 25)",
        "meta_object_id": "2010-022A",
        "meta_epoch": "2025-12-09T05:42:57.006720",
        "meta_mean_motion": 2.00552985,
        "meta_eccentricity": 0.0125965,
        "meta_inclination": 54.3007,
        "meta_ra_of_asc_node": 216.2152,
        "meta_arg_of_pericenter": 65.0346,
        "meta_mean_anomaly": 110.6478,
        "meta_ephemeris_type": 0,
        "meta_classification_type": "U",
        "meta_norad_cat_id": 36585,
        "meta_element_set_no": 999,
        "meta_rev_at_epoch": 11378,
        "meta_bstar": 0,
        "meta_mean_motion_dot": 1.4e-07,
        "meta_mean_motion_ddot": 0,
        "tle_line1": "1 36585U 10022A   25343.23815980  .00000014  00000+0  00000+0 0  9998",
        "tle_line2": "2 36585  54.3007 216.2152 0125965  65.0346 110.6478  2.00552985113782"
      },
      "geometry": {
        "type": "Point",
        "coordinates": [
          20.89853956304954,
          20.171349939026808
        ]
      }
    }
  ]
}